CALSPHERE 1             
1 00900U 64063C   22282.57630339  .00000834  00000+0  87819-3 0  9990
2 00900  90.1821  43.0104 0027478  42.8463 329.0686 13.73917936886330
CALSPHERE 2             
1 00902U 64063E   22282.57801986  .00000040  00000+0  46713-4 0  9998
2 00902  90.1961  46.1656 0018698 170.7717 201.3191 13.52723977674201
LCS 1                   
1 01361U 65034C   22282.32430746  .00000025  00000+0  21068-2 0  9999
2 01361  32.1374 134.9232 0012436 280.8685  79.0412  9.89302157 76505
TEMPSAT 1               
1 01512U 65065E   22282.31396240  .00000054  00000+0  88620-4 0  9991
2 01512  89.9225 217.7331 0071879  71.1951  81.5183 13.33457138780544
CALSPHERE 4A            
1 01520U 65065H   22282.57121235  .00000132  00000+0  23803-3 0  9996
2 01520  89.9825 130.0694 0067941 302.7156 110.5302 13.35908319782893
OPS 5712 (P/L 160)      
1 02826U 67053A   22282.56917828  .00006192  00000+0  15741-2 0  9998
2 02826  69.9312  21.2872 0006349 222.9597 137.1042 14.51113968869280
OPS 5712 (P/L 153)      
1 02874U 67053H   22282.03161139  .00000076  00000+0  93316-4 0  9990
2 02874  69.9721 121.8654 0006052 166.8818 193.2446 13.96420292818683
SURCAL 150B             
1 02909U 67053J   22282.46037722  .00009944  00000+0  18675-2 0  9992
2 02909  69.9500   5.3410 0006021 255.1241 104.9234 14.64898947880305
RIGIDSPHERE 2 (LCS 4)   
1 05398U 71067E   22282.47865444  .00000874  00000+0  29817-3 0  9992
2 05398  87.6277 351.5566 0063287  11.3316 348.9288 14.34342830680600
COSMOS 2493 (SKRL-756 1)
1 39490U 13078A   22282.51463758  .00002954  00000+0  30522-3 0  9993
2 39490  82.4151 124.8682 0018469  79.1669 281.1627 14.89706876476678
COSMOS 2494 (SKRL-756 2)
1 39491U 13078B   22282.51239604  .00003144  00000+0  31279-3 0  9997
2 39491  82.4146 118.3989 0022748  55.7015 304.6353 14.91176222477252
